NOAA 15                 
1 25338U 98030A   17360.63461126  .00000027  00000-0  30277-4 0  9999
2 25338  98.7773  11.8832 0010758  13.7857 346.3614 14.25832404 20427
NOAA 18                 
1 28654U 05018A   17360.60585957 -.00000001  00000-0  24670-4 0  9996
2 28654  99.1661  27.3668 0013536 250.5966 109.3742 14.12361945649418
METOP-A                 
1 29499U 06044A   17359.94349538 -.00000006  00000-0  16948-4 0  9996
2 29499  98.6537  56.1001 0001164  47.1780 297.5897 14.21512395580198
NOAA 19                 
1 33591U 09005A   17360.62671906  .00000128  00000-0  94344-4 0  9998
2 33591  99.1199 330.4395 0014956  91.1699 269.1185 14.12240645457825
METOP-B                 
1 38771U 12049A   17359.91421296  .00000004  00000-0  21825-4 0  9997
2 38771  98.6986  57.1417 0002082  79.8213 273.0869 14.21490891273513
SARAL                   
1 39086U 13009A   17360.18034052 -.00000001  00000-0  15858-4 0  9992
2 39086  98.5369 184.7771 0002005  67.0865 293.0530 14.32004586252589
